{
  "type": "FeatureCollection",
  "features": [
    {
      "type": "Feature",
      "properties": {
        "norad_id": 39766,
        "name": "ALOS-2",
        "group": "resource",
        "lat": -40.289389673510065,
        "lon": 86.36153509799502,
        "alt_km": 638.3296644255133,
        "timestamp": "2025-12-10T16:57:11.291741+00:00",
        "meta_object_name": "ALOS-2",
        "meta_object_id": "2014-029A",
        "meta_epoch": "2025-12-10T12:16:02.876160",
        "meta_mean_motion": 14.79466326,
        "meta_eccentricity": 0.0001476,
        "meta_inclination": 97.9227,
        "meta_ra_of_asc_node": 79.3892,
        "meta_arg_of_pericenter": 98.4859,
        "meta_mean_anomaly": 261.652,
        "meta_ephemeris_type": 0,
        "meta_classification_type": "U",
        "meta_norad_cat_id": 39766,
        "meta_element_set_no": 999,
        "meta_rev_at_epoch": 62368,
        "meta_bstar": 0.00028111,
        "meta_mean_motion_dot": 2.048e-05,
        "meta_mean_motion_ddot": 0,
        "tle_line1": "1 39766U 14029A   25344.51114440  .00002048  00000+0  28111-3 0  9994",
        "tle_line2": "2 39766  97.9227  79.3892 0001476  98.4859 261.6520 14.79466326623683"
      },
      "geometry": {
        "type": "Point",
        "coordinates": [
          86.36153509799502,
          -40.289389673510065
        ]
      }
    },
    {
      "type": "Feature",
      "properties": {
        "norad_id": 40010,
        "name": "KAZEOSAT 2",
        "group": "resource",
        "lat": -7.902611321359794,
        "lon": 8.070538191640495,
        "alt_km": 612.3294698906493,
        "timestamp": "2025-12-10T16:57:11.291751+00:00",
        "meta_object_name": "KAZEOSAT 2",
        "meta_object_id": "2014-033A",
        "meta_epoch": "2025-12-10T12:52:32.075040",
        "meta_mean_motion": 14.85162998,
        "meta_eccentricity": 0.0007564,
        "meta_inclination": 97.5503,
        "meta_ra_of_asc_node": 188.9644,
        "meta_arg_of_pericenter": 214.4975,
        "meta_mean_anomaly": 145.575,
        "meta_ephemeris_type": 0,
        "meta_classification_type": "U",
        "meta_norad_cat_id": 40010,
        "meta_element_set_no": 999,
        "meta_rev_at_epoch": 62095,
        "meta_bstar": 0.00017789,
        "meta_mean_motion_dot": 1.474e-05,
        "meta_mean_motion_ddot": 0,
        "tle_line1": "1 40010U 14033A   25344.53648235  .00001474  00000+0  17789-3 0  9990",
        "tle_line2": "2 40010  97.5503 188.9644 0007564 214.4975 145.5750 14.85162998620952"
      },
      "geometry": {
        "type": "Point",
        "coordinates": [
          8.070538191640495,
          -7.902611321359794
        ]
      }
    },
    {
      "type": "Feature",
      "properties": {
        "norad_id": 40011,
        "name": "HODOYOSHI-4",
        "group": "resource",
        "lat": -76.6857040442306,
        "lon": -40.35130623020181,
        "alt_km": 603.0405833567311,
        "timestamp": "2025-12-10T16:57:11.291760+00:00",
        "meta_object_name": "HODOYOSHI-4",
        "meta_object_id": "2014-033B",
        "meta_epoch": "2025-12-10T12:33:49.251744",
        "meta_mean_motion": 14.87467843,
        "meta_eccentricity": 0.0023166,
        "meta_inclination": 97.5414,
        "meta_ra_of_asc_node": 173.5165,
        "meta_arg_of_pericenter": 208.3254,
        "meta_mean_anomaly": 151.6705,
        "meta_ephemeris_type": 0,
        "meta_classification_type": "U",
        "meta_norad_cat_id": 40011,
        "meta_element_set_no": 999,
        "meta_rev_at_epoch": 62075,
        "meta_bstar": 0.0003419,
        "meta_mean_motion_dot": 3.06e-05,
        "meta_mean_motion_ddot": 0,
        "tle_line1": "1 40011U 14033B   25344.52348671  .00003060  00000+0  34190-3 0  9999",
        "tle_line2": "2 40011  97.5414 173.5165 0023166 208.3254 151.6705 14.87467843620755"
      },
      "geometry": {
        "type": "Point",
        "coordinates": [
          -40.35130623020181,
          -76.6857040442306
        ]
      }
    },
    {
      "type": "Feature",
      "properties": {
        "norad_id": 40013,
        "name": "DEIMOS-2",
        "group": "resource",
        "lat": 15.590726477180937,
        "lon": -141.5632711570054,
        "alt_km": 589.3321194701202,
        "timestamp": "2025-12-10T16:57:11.291770+00:00",
        "meta_object_name": "DEIMOS-2",
        "meta_object_id": "2014-033D",
        "meta_epoch": "2025-12-10T12:03:26.057088",
        "meta_mean_motion": 14.92956749,
        "meta_eccentricity": 9.73e-05,
        "meta_inclination": 97.6066,
        "meta_ra_of_asc_node": 220.3765,
        "meta_arg_of_pericenter": 89.7459,
        "meta_mean_anomaly": 270.3872,
        "meta_ephemeris_type": 0,
        "meta_classification_type": "U",
        "meta_norad_cat_id": 40013,
        "meta_element_set_no": 999,
        "meta_rev_at_epoch": 60956,
        "meta_bstar": 0.0002461,
        "meta_mean_motion_dot": 2.501e-05,
        "meta_mean_motion_ddot": 0,
        "tle_line1": "1 40013U 14033D   25344.50238492  .00002501  00000+0  24610-3 0  9993",
        "tle_line2": "2 40013  97.6066 220.3765 0000973  89.7459 270.3872 14.92956749609561"
      },
      "geometry": {
        "type": "Point",
        "coordinates": [
          -141.5632711570054,
          15.590726477180937
        ]
      }
    },
    {
      "type": "Feature",
      "properties": {
        "norad_id": 40015,
        "name": "HODOYOSHI-3",
        "group": "resource",
        "lat": -23.29728936449338,
        "lon": -32.675003190319266,
        "alt_km": 605.8347391744092,
        "timestamp": "2025-12-10T16:57:11.291780+00:00",
        "meta_object_name": "HODOYOSHI-3",
        "meta_object_id": "2014-033F",
        "meta_epoch": "2025-12-10T11:11:05.437824",
        "meta_mean_motion": 14.84794737,
        "meta_eccentricity": 0.003184,
        "meta_inclination": 97.62,
        "meta_ra_of_asc_node": 150.4,
        "meta_arg_of_pericenter": 255.7267,
        "meta_mean_anomaly": 104.0411,
        "meta_ephemeris_type": 0,
        "meta_classification_type": "U",
        "meta_norad_cat_id": 40015,
        "meta_element_set_no": 999,
        "meta_rev_at_epoch": 61961,
        "meta_bstar": 0.00033087,
        "meta_mean_motion_dot": 2.781e-05,
        "meta_mean_motion_ddot": 0,
        "tle_line1": "1 40015U 14033F   25344.46603516  .00002781  00000+0  33087-3 0  9991",
        "tle_line2": "2 40015  97.6200 150.4000 0031840 255.7267 104.0411 14.84794737619614"
      },
      "geometry": {
        "type": "Point",
        "coordinates": [
          -32.675003190319266,
          -23.29728936449338
        ]
      }
    },
    {
      "type": "Feature",
      "properties": {
        "norad_id": 40053,
        "name": "SPOT 7",
        "group": "resource",
        "lat": 75.29636708445824,
        "lon": -100.34731586457724,
        "alt_km": 682.590433686948,
        "timestamp": "2025-12-10T16:57:11.291790+00:00",
        "meta_object_name": "SPOT 7",
        "meta_object_id": "2014-034A",
        "meta_epoch": "2025-12-10T11:33:16.828992",
        "meta_mean_motion": 14.60729413,
        "meta_eccentricity": 0.000157,
        "meta_inclination": 98.0904,
        "meta_ra_of_asc_node": 46.6088,
        "meta_arg_of_pericenter": 87.7401,
        "meta_mean_anomaly": 272.3979,
        "meta_ephemeris_type": 0,
        "meta_classification_type": "U",
        "meta_norad_cat_id": 40053,
        "meta_element_set_no": 999,
        "meta_rev_at_epoch": 60958,
        "meta_bstar": 0.00019999,
        "meta_mean_motion_dot": 9.29e-06,
        "meta_mean_motion_ddot": 0,
        "tle_line1": "1 40053U 14034A   25344.48144478  .00000929  00000+0  19999-3 0  9991",
        "tle_line2": "2 40053  98.0904  46.6088 0001570  87.7401 272.3979 14.60729413609580"
      },
      "geometry": {
        "type": "Point",
        "coordinates": [
          -100.34731586457724,
          75.29636708445824
        ]
      }
    },
    {
      "type": "Feature",
      "properties": {
        "norad_id": 40072,
        "name": "SKYSAT-B",
        "group": "resource",
        "lat": -22.760699018100635,
        "lon": 104.76737765125283,
        "alt_km": 608.9068548672112,
        "timestamp": "2025-12-10T16:57:11.291800+00:00",
        "meta_object_name": "SKYSAT-B",
        "meta_object_id": "2014-037D",
        "meta_epoch": "2025-12-10T09:35:07.778976",
        "meta_mean_motion": 14.87313745,
        "meta_eccentricity": 0.0005966,
        "meta_inclination": 98.3608,
        "meta_ra_of_asc_node": 287.9818,
        "meta_arg_of_pericenter": 157.2173,
        "meta_mean_anomaly": 202.9307,
        "meta_ephemeris_type": 0,
        "meta_classification_type": "U",
        "meta_norad_cat_id": 40072,
        "meta_element_set_no": 999,
        "meta_rev_at_epoch": 61789,
        "meta_bstar": 0.00035559,
        "meta_mean_motion_dot": 3.149e-05,
        "meta_mean_motion_ddot": 0,
        "tle_line1": "1 40072U 14037D   25344.39939559  .00003149  00000+0  35559-3 0  9994",
        "tle_line2": "2 40072  98.3608 287.9818 0005966 157.2173 202.9307 14.87313745617891"
      },
      "geometry": {
        "type": "Point",
        "coordinates": [
          104.76737765125283,
          -22.760699018100635
        ]
      }
    }
  ]
}